SAUDISAT 1C (SO-50)     
1 27607U 02058C   26198.56666565  .00000339  00000+0  58139-4 0  9992
2 27607  64.5519  34.9873 0074455 256.8352 102.4439 14.83100826268961
SAUDISAT 2              
1 28371U 04025F   26198.45817562  .00000088  00000+0  30777-4 0  9999
2 28371  98.5522 199.2243 0024194 201.0830 158.9372 14.56698938170156
SAUDISAT 3              
1 31118U 07012B   26198.58751088  .00000091  00000+0  22871-4 0  9995
2 31118  98.1468 149.0107 0015715 127.5874 232.6762 14.71440948 32215
PISAT                   
1 41784U 16059B   26198.45494007  .00000424  00000+0  79783-4 0  9991
2 41784  97.8192 197.6092 0030507 107.9355 252.5181 14.69031877524181
FLYING LAPTOP           
1 42831U 17042G   26198.71276133  .00002081  00000+0  16558-3 0  9996
2 42831  97.4819 353.0993 0019601  24.4623 335.7527 15.01323225491031
SALSAT                  
1 46495U 20068K   26197.96833821  .00003909  00000+0  13663-3 0  9991
2 46495  97.8858 202.8562 0009384 186.4299 173.6821 15.30186484319914
